   end_orbit
end_platform

platform KAZEOSAT_2(40010) RESOURCE
   orbit
1 40010U 14033A   14244.04751304  .00000593  00000-0  81822-4 0  2350
2 40010  97.9781 138.4471 0018952   0.9886 359.1369 14.81755605 10843
   end_orbit
end_platform

platform HODOYOSHI-4(40011) RESOURCE
   orbit
1 40011U 14033B   14244.16661403  .00001111  00000-0  15527-3 0  2247
2 40011  97.9761 138.2720 0027792 343.5619  16.4697 14.79372412 10844
   end_orbit
end_platform

platform DEIMOS-2(40013) RESOURCE
   orbit
1 40013U 14033D   14244.21230745 -.00033378  00000-0 -38049-2 0  2386
2 40013  97.9591 139.1609 0017403  70.0091 290.2977 14.86186712 10899
   end_orbit
end_platform

platform HODOYOSHI-3(40015) RESOURCE
   orbit
1 40015U 14033F   14244.15416497  .00001075  00000-0  15863-3 0  2197
2 40015  97.9737 137.9602 0037915 334.9471  24.9904 14.76893417 10838
   end_orbit
end_platform

platform SPOT_7(40053) RESOURCE
   orbit
1 40053U 14034A   14244.15126064 -.00000046  00000-0  00000+0 0  2111
2 40053  98.1982 310.6276 0001391  66.9656 293.1712 14.58562347  9186
   end_orbit
end_platform

platform SKYSAT-2(40072) RESOURCE
   orbit
1 40072U 14037D   14244.15918173  .00000648  00000-0  93497-4 0  1668
2 40072  98.3968 298.2436 0008073  83.3364 276.8768 14.79871852  8045
